0 THORAD DELTA 1 DEB
1 10393U 74089EJ  13282.09839608 -.00000052  00000-0 -10917-3 0  8262
2 10393 101.5518 150.2344 0157412 180.2287 349.1425 12.23856618743291
0 THORAD DELTA 1 DEB
1 10393U 74089EJ  13284.13884653 -.00000007  00000-0  29318-3 0  8274
2 10393 101.5515 152.1141 0157424 176.4631 339.1423 12.23856247743540
0 THORAD DELTA 1 DEB
1 10393U 74089EJ  13286.50117023 -.00000024  00000-0  13733-3 0  8281
2 10393 101.5510 154.2901 0157448 172.1028 307.2772 12.23856556743839
0 THORAD DELTA 1 DEB
1 10393U 74089EJ  13288.85921536 -.00000003  00000-0  32744-3 0  8294
2 10393 101.5502 156.4624 0157489 167.7497 256.5639 12.23856450744125
0 THORAD DELTA 1 DEB
1 10393U 74089EJ  13291.16178318 -.00000029  00000-0  96616-4 0  8303
2 10393 101.5497 158.5834 0157513 163.4927 321.4293 12.23857059744408
0 THORAD DELTA 1 DEB
1 10393U 74089EJ  13293.59208772 -.00000013  00000-0  23784-3 0  8319
2 10393 101.5495 160.8220 0157549 159.0058 229.0862 12.23857064744700
0 THORAD DELTA 1 DEB
1 10393U 74089EJ  13295.89075532 -.00000027  00000-0  11255-3 0  8326
2 10393 101.5494 162.9391 0157573 154.7617 276.7656 12.23857070744988
